[{"OBJECT_NAME":"STARLINK-5264","OBJECT_ID":"2022-141BB","EPOCH":"2026-03-09T23:20:04.188480","MEAN_MOTION":15.08836829,"ECCENTRICITY":0.0001239,"INCLINATION":53.2182,"RA_OF_ASC_NODE":317.6895,"ARG_OF_PERICENTER":92.9072,"MEAN_ANOMALY":267.2062,"EPHEMERIS_TYPE":0,"CLASSIFICATION_TYPE":"U","NORAD_CAT_ID":54206,"ELEMENT_SET_NO":999,"REV_AT_EPOCH":18653,"BSTAR":-7.7739346e-5,"MEAN_MOTION_DOT":-1.525e-5,"MEAN_MOTION_DDOT":0},{"OBJECT_NAME":"LEMUR-2-KREMPEL-BRO1","OBJECT_ID":"2025-061G","EPOCH":"2026-03-09T22:19:45.751296","MEAN_MOTION":15.13773226,"ECCENTRICITY":0.0017497,"INCLINATION":97.5535,"RA_OF_ASC_NODE":45.5283,"ARG_OF_PERICENTER":227.946,"MEAN_ANOMALY":132.0284,"EPHEMERIS_TYPE":0,"CLASSIFICATION_TYPE":"U","NORAD_CAT_ID":63357,"ELEMENT_SET_NO":999,"REV_AT_EPOCH":5261,"BSTAR":0.00031891713,"MEAN_MOTION_DOT":5.707e-5,"MEAN_MOTION_DDOT":0}]
